$$SOE
2460147.500000000, A.D. 2023-Jul-22 00:00:00.0000, -2.615042993828448E+09, -4.088640974745869E+09, -4.288543809001861E+08,
2460154.500000000, A.D. 2023-Jul-29 00:00:00.0000, -2.612503672545450E+09, -4.090787445641213E+09, -4.296289780900807E+08,
2460161.500000000, A.D. 2023-Aug-05 00:00:00.0000, -2.609963338103020E+09, -4.092932224115535E+09, -4.304033925614865E+08,
2460168.500000000, A.D. 2023-Aug-12 00:00:00.0000, -2.607421994211836E+09, -4.095075311771105E+09, -4.311776238963749E+08,
2460175.500000000, A.D. 2023-Aug-19 00:00:00.0000, -2.604879644277599E+09, -4.097216710700249E+09, -4.319516717072082E+08,
2460182.500000000, A.D. 2023-Aug-26 00:00:00.0000, -2.602336291400275E+09, -4.099356423395345E+09, -4.327255356308572E+08,
2460189.500000000, A.D. 2023-Sep-02 00:00:00.0000, -2.599791938396353E+09, -4.101494452730143E+09, -4.334992153271847E+08,
2460196.500000000, A.D. 2023-Sep-09 00:00:00.0000, -2.597246587807468E+09, -4.103630802053611E+09, -4.342727104889870E+08,
2460203.500000000, A.D. 2023-Sep-16 00:00:00.0000, -2.594700241726982E+09, -4.105765475454328E+09, -4.350460208834269E+08,
2460210.500000000, A.D. 2023-Sep-23 00:00:00.0000, -2.592152901028099E+09, -4.107898477908625E+09, -4.358191464396491E+08,
2460217.500000000, A.D. 2023-Sep-30 00:00:00.0000, -2.589604564333082E+09, -4.110029814121768E+09, -4.365920872540228E+08,
2460224.500000000, A.D. 2023-Oct-07 00:00:00.0000, -2.587055229077329E+09, -4.112159486604999E+09, -4.373648433413541E+08,
2460231.500000000, A.D. 2023-Oct-14 00:00:00.0000, -2.584504893628383E+09, -4.114287496301602E+09, -4.381374144980423E+08,
2460238.500000000, A.D. 2023-Oct-21 00:00:00.0000, -2.581953557231287E+09, -4.116413844159284E+09, -4.389098004421518E+08,
2460245.500000000, A.D. 2023-Oct-28 00:00:00.0000, -2.579401219204644E+09, -4.118538531388736E+09, -4.396820009148183E+08,
2460252.500000000, A.D. 2023-Nov-04 00:00:00.0000, -2.576847878637407E+09, -4.120661559178772E+09, -4.404540156910417E+08,
2460259.500000000, A.D. 2023-Nov-11 00:00:00.0000, -2.574293534408826E+09, -4.122782928467930E+09, -4.412258445649087E+08,
2460266.500000000, A.D. 2023-Nov-18 00:00:00.0000, -2.571738185312072E+09, -4.124902639836823E+09, -4.419974873343813E+08,
2460273.500000000, A.D. 2023-Nov-25 00:00:00.0000, -2.569181830208695E+09, -4.127020693498699E+09, -4.427689437902660E+08,
2460280.500000000, A.D. 2023-Dec-02 00:00:00.0000, -2.566624468185742E+09, -4.129137089399395E+09, -4.435402137126796E+08,
2460287.500000000, A.D. 2023-Dec-09 00:00:00.0000, -2.564066098637694E+09, -4.131251827485602E+09, -4.443112968868561E+08,
2460294.500000000, A.D. 2023-Dec-16 00:00:00.0000, -2.561506720985698E+09, -4.133364908128875E+09, -4.450821931636016E+08,
2460301.500000000, A.D. 2023-Dec-23 00:00:00.0000, -2.558946333685622E+09, -4.135476332017941E+09, -4.458529025402229E+08,
2460308.500000000, A.D. 2023-Dec-30 00:00:00.0000, -2.556384933865153E+09, -4.137586098470049E+09, -4.466234250533650E+08,
2460315.500000000, A.D. 2024-Jan-06 00:00:00.0000, -2.553822519362417E+09, -4.139694204522086E+09, -4.473937605142872E+08,
2460322.500000000, A.D. 2024-Jan-13 00:00:00.0000, -2.551259089993336E+09, -4.141800646608354E+09, -4.481639085254607E+08,
2460329.500000000, A.D. 2024-Jan-20 00:00:00.0000, -2.548694646824195E+09, -4.143905421740432E+09, -4.489338686389139E+08,
2460336.500000000, A.D. 2024-Jan-27 00:00:00.0000, -2.546129191478148E+09, -4.146008527536932E+09, -4.497036404171691E+08,
2460343.500000000, A.D. 2024-Feb-03 00:00:00.0000, -2.543562725904024E+09, -4.148109962051750E+09, -4.504732234352567E+08,
2460350.500000000, A.D. 2024-Feb-10 00:00:00.0000, -2.540995252330095E+09, -4.150209723691952E+09, -4.512426172732387E+08,
2460357.500000000, A.D. 2024-Feb-17 00:00:00.0000, -2.538426773264074E+09, -4.152307811217353E+09, -4.520118215114989E+08,
2460364.500000000, A.D. 2024-Feb-24 00:00:00.0000, -2.535857291503435E+09, -4.154404223806997E+09, -4.527808357310348E+08,
2460371.500000000, A.D. 2024-Mar-02 00:00:00.0000, -2.533286810126688E+09, -4.156498961225080E+09, -4.535496595242028E+08,
2460378.500000000, A.D. 2024-Mar-09 00:00:00.0000, -2.530715332326810E+09, -4.158592024149137E+09, -4.543182925338681E+08,
2460385.500000000, A.D. 2024-Mar-16 00:00:00.0000, -2.528142860691521E+09, -4.160683414463270E+09, -4.550867345411577E+08,
2460392.500000000, A.D. 2024-Mar-23 00:00:00.0000, -2.525569396033989E+09, -4.162773134407334E+09, -4.558549855017056E+08,
2460399.500000000, A.D. 2024-Mar-30 00:00:00.0000, -2.522994938015100E+09, -4.164861184608901E+09, -4.566230453270555E+08,
2460406.500000000, A.D. 2024-Apr-06 00:00:00.0000, -2.520419487301274E+09, -4.166947564365598E+09, -4.573909137098951E+08,
2460413.500000000, A.D. 2024-Apr-13 00:00:00.0000, -2.517843045706677E+09, -4.169032273341404E+09, -4.581585902505126E+08,
2460420.500000000, A.D. 2024-Apr-20 00:00:00.0000, -2.515265615271996E+09, -4.171115312000252E+09, -4.589260745783627E+08,
2460427.500000000, A.D. 2024-Apr-27 00:00:00.0000, -2.512687197796774E+09, -4.173196681338301E+09, -4.596933663754537E+08,
2460434.500000000, A.D. 2024-May-04 00:00:00.0000, -2.510107794737418E+09, -4.175276382618201E+09, -4.604604653670306E+08,
2460441.500000000, A.D. 2024-May-11 00:00:00.0000, -2.507527407232513E+09, -4.177354417206960E+09, -4.612273713096361E+08,
2460448.500000000, A.D. 2024-May-18 00:00:00.0000, -2.504946036173462E+09, -4.179430786495519E+09, -4.619940839821634E+08,
2460455.500000000, A.D. 2024-May-25 00:00:00.0000, -2.502363682295749E+09, -4.181505491906846E+09, -4.627606031825719E+08,
2460462.500000000, A.D. 2024-Jun-01 00:00:00.0000, -2.499780346230958E+09, -4.183578535049655E+09, -4.635269287402263E+08,
2460469.500000000, A.D. 2024-Jun-08 00:00:00.0000, -2.497196028273204E+09, -4.185649918040373E+09, -4.642930605680888E+08,
2460476.500000000, A.D. 2024-Jun-15 00:00:00.0000, -2.494610727460426E+09, -4.187719643448022E+09, -4.650589987466016E+08,
2460483.500000000, A.D. 2024-Jun-22 00:00:00.0000, -2.492024440975807E+09, -4.189787712686612E+09, -4.658247434507506E+08,
2460490.500000000, A.D. 2024-Jun-29 00:00:00.0000, -2.489437165990904E+09, -4.191854124675665E+09, -4.665902946742468E+08,
2460497.500000000, A.D. 2024-Jul-06 00:00:00.0000, -2.486848901305512E+09, -4.193918877239848E+09, -4.673556521951647E+08,
2460504.500000000, A.D. 2024-Jul-13 00:00:00.0000, -2.484259646835005E+09, -4.195981968423503E+09, -4.681208157308750E+08,
2460511.500000000, A.D. 2024-Jul-20 00:00:00.0000, -2.481669402930798E+09, -4.198043396571353E+09, -4.688857850061712E+08,
2460518.500000000, A.D. 2024-Jul-27 00:00:00.0000, -2.479078170189948E+09, -4.200103160134767E+09, -4.696505597528303E+08,
2460525.500000000, A.D. 2024-Aug-03 00:00:00.0000, -2.476485949480930E+09, -4.202161257578465E+09, -4.704151396963429E+08,
2460532.500000000, A.D. 2024-Aug-10 00:00:00.0000, -2.473892742019851E+09, -4.204217687391930E+09, -4.711795245455272E+08,
2460539.500000000, A.D. 2024-Aug-17 00:00:00.0000, -2.471298549449736E+09, -4.206272448183463E+09, -4.719437139877877E+08,
2460546.500000000, A.D. 2024-Aug-24 00:00:00.0000, -2.468703373895082E+09, -4.208325538878847E+09, -4.727077076946280E+08,
2460553.500000000, A.D. 2024-Aug-31 00:00:00.0000, -2.466107217876037E+09, -4.210376959085680E+09, -4.734715053533018E+08,
2460560.500000000, A.D. 2024-Sep-07 00:00:00.0000, -2.463510083716713E+09, -4.212426709496670E+09, -4.742351067480669E+08,
2460567.500000000, A.D. 2024-Sep-14 00:00:00.0000, -2.460911972362388E+09, -4.214474791335726E+09, -4.749985118177133E+08,
2460574.500000000, A.D. 2024-Sep-21 00:00:00.0000, -2.458312883634423E+09, -4.216521204434000E+09, -4.757617204697912E+08,
2460581.500000000, A.D. 2024-Sep-28 00:00:00.0000, -2.455712818410389E+09, -4.218565947163394E+09, -4.765247323707633E+08,
2460588.500000000, A.D. 2024-Oct-05 00:00:00.0000, -2.453111779059720E+09, -4.220609018225683E+09, -4.772875470486846E+08,
2460595.500000000, A.D. 2024-Oct-12 00:00:00.0000, -2.450509768495465E+09, -4.222650417317054E+09, -4.780501640318866E+08,
2460602.500000000, A.D. 2024-Oct-19 00:00:00.0000, -2.447906789593133E+09, -4.224690144938720E+09, -4.788125828852563E+08,
2460609.500000000, A.D. 2024-Oct-26 00:00:00.0000, -2.445302845008902E+09, -4.226728202154810E+09, -4.795748032066498E+08,
2460616.500000000, A.D. 2024-Nov-02 00:00:00.0000, -2.442697937139797E+09, -4.228764590445694E+09, -4.803368246191609E+08,
2460623.500000000, A.D. 2024-Nov-09 00:00:00.0000, -2.440092068129091E+09, -4.230799311635757E+09, -4.810986467663877E+08,
2460630.500000000, A.D. 2024-Nov-16 00:00:00.0000, -2.437485239890869E+09, -4.232832367895065E+09, -4.818602693129995E+08,
2460637.500000000, A.D. 2024-Nov-23 00:00:00.0000, -2.434877454106680E+09, -4.234863761864538E+09, -4.826216919589238E+08,
2460644.500000000, A.D. 2024-Nov-30 00:00:00.0000, -2.432268711985850E+09, -4.236893496947024E+09, -4.833829144896622E+08,
2460651.500000000, A.D. 2024-Dec-07 00:00:00.0000, -2.429659013369890E+09, -4.238921577343418E+09, -4.841439368667312E+08,
2460658.500000000, A.D. 2024-Dec-14 00:00:00.0000, -2.427048355869565E+09, -4.240948006609699E+09, -4.849047591949160E+08,
2460665.500000000, A.D. 2024-Dec-21 00:00:00.0000, -2.424436736353075E+09, -4.242972785975493E+09, -4.856653814549284E+08,
2460672.500000000, A.D. 2024-Dec-28 00:00:00.0000, -2.421824152812871E+09, -4.244995915391410E+09, -4.864258034247093E+08,
2460679.500000000, A.D. 2025-Jan-04 00:00:00.0000, -2.419210604013757E+09, -4.247017394928921E+09, -4.871860248331921E+08,
2460686.500000000, A.D. 2025-Jan-11 00:00:00.0000, -2.416596088743509E+09, -4.249037224872899E+09, -4.879460454436276E+08,
2460693.500000000, A.D. 2025-Jan-18 00:00:00.0000, -2.413980605582789E+09, -4.251055405425567E+09, -4.887058650571716E+08,
2460700.500000000, A.D. 2025-Jan-25 00:00:00.0000, -2.411364152950747E+09, -4.253071936496428E+09, -4.894654834976165E+08,
2460707.500000000, A.D. 2025-Feb-01 00:00:00.0000, -2.408746729236660E+09, -4.255086817608266E+09, -4.902249005968213E+08,
$$EOE